{
  "norad_id": 63820,
  "name": "STARLINK-33794",
  "history": [
    {
      "epoch": "2026-03-28T15:49:10.998912",
      "apogee_km": 484.5574390617794,
      "perigee_km": 481.44646143895716,
      "latitude_deg": 29.807636311158024,
      "longitude_deg": -94.72111231996678,
      "semi_major_axis_km": 6861.138950250368,
      "eccentricity": 0.00022671,
      "inclination_deg": 43.0059,
      "raan_deg": 65.6034,
      "arg_perigee_deg": 278.503,
      "mean_anomaly_deg": 81.5565,
      "mean_motion_rev_day": 15.27595745
    }
  ]
}